NORAD_CAT_ID,OBJECT_NAME,OBJECT_TYPE,EPOCH,MEAN_MOTION,ECCENTRICITY,INCLINATION,RA_OF_ASC_NODE,ARG_OF_PERICENTER,MEAN_ANOMALY,BSTAR,MEAN_MOTION_DOT,MEAN_MOTION_DDOT,TLE_LINE0,TLE_LINE1,TLE_LINE2,SEMIMAJOR_AXIS,PERIOD,APOGEE,PERIGEE,DECAYED
55749.0,STARLINK-5560,PAYLOAD,2023-03-22 22:00:00,15.69861445,0.0003288,70.0005,101.3439,269.7164,359.5382,0.0010125,0.00123011,0.0,0 STARLINK-5560,1 55749U 23028J   23081.91667824  .00123011  00000-0  10125-2 0  9991,2 55749  70.0005 101.3439 0003288 269.7164 359.5382 15.69861445  3671,6737.43,91.728,361.511,357.08,0.0
55749.0,STARLINK-5560,PAYLOAD,2023-03-23 06:00:00,15.69952044,0.0003377,70.0009,100.4067,272.4463,80.1234,-0.00057307,-0.00068639,0.0,0 STARLINK-5560,1 55749U 23028J   23082.25001157 -.00068639  00000-0 -57307-3 0  9990,2 55749  70.0009 100.4067 0003377 272.4463  80.1234 15.69952044  3730,6737.171,91.723,361.311,356.761,0.0
55749.0,STARLINK-5560,PAYLOAD,2023-03-23 14:00:01,15.6992332,0.0003403,70.0004,99.4693,272.2625,163.7108,-3.7542e-05,-4.724e-05,0.0,0 STARLINK-5560,1 55749U 23028J   23082.58335648 -.00004724  00000-0 -37542-4 0  9996,2 55749  70.0004  99.4693 0003403 272.2625 163.7108 15.69923320  1309,6737.253,91.724,361.411,356.826,0.0
55749.0,STARLINK-5560,PAYLOAD,2023-03-24 17:00:11,15.70052469,0.0003491,70.0004,96.3064,264.4913,48.3431,-0.0049554,-0.00560944,0.0,0 STARLINK-5560,1 55749U 23028J   23083.70846065 -.00560944  00000-0 -49554-2 0  9996,2 55749  70.0004  96.3064 0003491 264.4913  48.3431 15.70052469  3956,6736.884,91.717,361.101,356.397,0.0
55749.0,STARLINK-5560,PAYLOAD,2023-03-24 22:00:01,15.69905655,0.0003709,70.0006,95.7213,263.4385,145.8847,-0.0079748,-0.00865245,0.0,0 STARLINK-5560,1 55749U 23028J   23083.91668981 -.00865245  00000-0 -79748-2 0  9998,2 55749  70.0006  95.7213 0003709 263.4385 145.8847 15.69905655  1304,6737.304,91.725,361.668,356.67,0.0
55749.0,STARLINK-5560,PAYLOAD,2023-03-25 03:54:31,15.69902368,0.0003991,70.0005,95.0293,254.9999,105.0755,3.9965e-05,4.591e-05,0.0,0 STARLINK-5560,1 55749U 23028J   23084.16286951  .00004591  00000-0  39965-4 0  9995,2 55749  70.0005  95.0293 0003991 254.9999 105.0755 15.69902368  4030,6737.313,91.725,361.867,356.489,0.0
55749.0,STARLINK-5560,PAYLOAD,2023-03-25 11:33:34,15.69203296,0.0003211,70.0007,94.1335,291.4998,68.5855,-0.002079,-0.00236154,0.0,0 STARLINK-5560,1 55749U 23028J   23084.48165093 -.00236154  00000-0 -20790-2 0  9991,2 55749  70.0007  94.1335 0003211 291.4998  68.5855 15.69203296  4082,6739.314,91.766,363.343,359.015,0.0
55749.0,STARLINK-5560,PAYLOAD,2023-03-25 13:05:21,15.69047665,0.0005271,70.0006,93.9551,247.5479,112.5159,-0.003668,-0.00405944,0.0,0 STARLINK-5560,1 55749U 23028J   23084.54538582 -.00405944  00000-0 -36680-2 0  9995,2 55749  70.0006  93.9551 0005271 247.5479 112.5159 15.69047665  4096,6739.76,91.775,365.177,358.072,0.0
55749.0,STARLINK-5560,PAYLOAD,2023-03-26 06:00:00,15.67313342,0.0003567,70.0009,91.981,270.4102,105.9258,-0.0092962,-0.00915884,0.0,0 STARLINK-5560,1 55749U 23028J   23085.25001157 -.00915884  00000-0 -92962-2 0  9991,2 55749  70.0009  91.9810 0003567 270.4102 105.9258 15.67313342  4204,6744.731,91.877,369.002,364.19,0.0
55749.0,STARLINK-5560,PAYLOAD,2023-03-26 22:00:01,15.66007232,0.0003431,70.0009,90.1156,266.5262,268.713,-0.0094962,-0.008897,0.0,0 STARLINK-5560,1 55749U 23028J   23085.91668981 -.00889700  00000-0 -94962-2 0  9997,2 55749  70.0009  90.1156 0003431 266.5262 268.7130 15.66007232  1303,6748.481,91.954,372.661,368.03,0.0
55749.0,STARLINK-5560,PAYLOAD,2023-03-27 06:00:00,15.65348141,0.000356,70.0013,89.1844,270.9566,342.4788,-0.0099281,-0.00904512,0.0,0 STARLINK-5560,1 55749U 23028J   23086.25001157 -.00904512  00000-0 -99281-2 0  9999,2 55749  70.0013  89.1844 0003560 270.9566 342.4788 15.65348141  4352,6750.375,91.992,374.643,369.837,0.0
55749.0,STARLINK-5560,PAYLOAD,2023-03-27 14:00:01,15.6473863,0.0003678,70.0011,88.2538,272.9522,57.9315,-0.010906,-0.00963756,0.0,0 STARLINK-5560,1 55749U 23028J   23086.58334491 -.00963756  00000-0 -10906-1 0  9996,2 55749  70.0011  88.2538 0003678 272.9522  57.9315 15.64738630  1305,6752.128,92.028,376.476,371.509,0.0
55749.0,STARLINK-5560,PAYLOAD,2023-03-27 22:00:00,15.64050879,0.0003619,70.0011,87.3248,268.8511,138.7248,-0.010295,-0.00891868,0.0,0 STARLINK-5560,1 55749U 23028J   23086.91667824 -.00891868  00000-0 -10295-1 0  9997,2 55749  70.0011  87.3248 0003619 268.8511 138.7248 15.64050879  1305,6754.107,92.069,378.416,373.527,0.0
55749.0,STARLINK-5560,PAYLOAD,2023-03-28 08:00:01,15.63206312,0.0003423,70.001,86.1643,272.6534,319.6903,-0.010153,-0.00854002,0.0,0 STARLINK-5560,1 55749U 23028J   23087.33334491 -.00854002  00000-0 -10153-1 0  9997,2 55749  70.0010  86.1643 0003423 272.6534 319.6903 15.63206312  4520,6756.539,92.118,380.717,376.092,0.0
55749.0,STARLINK-5560,PAYLOAD,2023-03-28 14:00:01,15.62793305,0.0003363,70.0007,85.4687,272.3813,286.2073,-0.012054,-0.00984024,0.0,0 STARLINK-5560,1 55749U 23028J   23087.58334491 -.00984024  00000-0 -12054-1 0  9994,2 55749  70.0007  85.4687 0003363 272.3813 286.2073 15.62793305  1308,6757.73,92.143,381.867,377.322,0.0
55749.0,STARLINK-5560,PAYLOAD,2023-03-28 22:00:00,15.62100735,0.0003438,70.0011,84.5419,264.3866,8.5484,-0.011241,-0.00901004,0.0,0 STARLINK-5560,1 55749U 23028J   23087.91667824 -.00901004  00000-0 -11241-1 0  9994,2 55749  70.0011  84.5419 0003438 264.3866   8.5484 15.62100735  1308,6759.727,92.184,383.916,379.268,0.0
55749.0,STARLINK-5560,PAYLOAD,2023-03-29 00:00:00,15.61972545,0.0003528,70.0013,84.3105,266.5928,114.7948,-0.012127,-0.00961099,0.0,0 STARLINK-5560,1 55749U 23028J   23088.00001157 -.00961099  00000-0 -12127-1 0  9990,2 55749  70.0013  84.3105 0003528 266.5928 114.7948 15.61972545  4632,6760.097,92.191,384.347,379.577,0.0
55749.0,STARLINK-5560,PAYLOAD,2023-03-29 14:00:01,15.60823104,0.0003343,70.0007,82.6912,272.0591,147.2016,-0.012725,-0.00964109,0.0,0 STARLINK-5560,1 55749U 23028J   23088.58334491 -.00964109  00000-0 -12725-1 0  9992,2 55749  70.0007  82.6912 0003343 272.0591 147.2016 15.60823104  4727,6763.415,92.259,387.541,383.019,0.0
55749.0,STARLINK-5560,PAYLOAD,2023-03-29 22:00:00,15.60153977,0.0003264,70.0009,81.7672,265.4999,225.7514,-0.012357,-0.00916959,0.0,0 STARLINK-5560,1 55749U 23028J   23088.91667824 -.00916959  00000-0 -12357-1 0  9999,2 55749  70.0009  81.7672 0003264 265.4999 225.7514 15.60153977  1302,6765.349,92.299,389.422,385.006,0.0
55749.0,STARLINK-5560,PAYLOAD,2023-03-30 00:00:00,15.6001614,0.000329,70.0011,81.5363,263.3337,335.787,-0.013082,-0.0096112,0.0,0 STARLINK-5560,1 55749U 23028J   23089.00001157 -.00961120  00000-0 -13082-1 0  9997,2 55749  70.0011  81.5363 0003290 263.3337 335.7870 15.60016140  4784,6765.747,92.307,389.838,385.386,0.0
55749.0,STARLINK-5560,PAYLOAD,2023-03-30 14:00:01,15.58861247,0.0003187,70.0005,79.9217,267.7758,5.114,-0.013618,-0.00957638,0.0,0 STARLINK-5560,1 55749U 23028J   23089.58334491 -.00957638  00000-0 -13618-1 0  9994,2 55749  70.0005  79.9217 0003187 267.7758   5.1140 15.58861247  4877,6769.089,92.375,393.111,388.796,0.0
55749.0,STARLINK-5560,PAYLOAD,2023-03-30 22:00:00,15.58199762,0.0003443,70.001,79.0005,262.4008,80.1312,-0.013398,-0.00922395,0.0,0 STARLINK-5560,1 55749U 23028J   23089.91667824 -.00922395  00000-0 -13398-1 0  9997,2 55749  70.0010  79.0005 0003443 262.4008  80.1312 15.58199762  1309,6771.004,92.414,395.2,390.538,0.0
55749.0,STARLINK-5560,PAYLOAD,2023-03-31 06:00:00,15.57510566,0.0003345,70.0009,78.0802,268.8366,142.575,-0.013053,-0.00879566,0.0,0 STARLINK-5560,1 55749U 23028J   23090.25001157 -.00879566  00000-0 -13053-1 0  9996,2 55749  70.0009  78.0802 0003345 268.8366 142.5750 15.57510566  4983,6773.002,92.455,397.132,392.601,0.0
55749.0,STARLINK-5560,PAYLOAD,2023-03-31 22:00:00,15.56244282,0.0003231,70.0006,76.2418,264.6033,282.1669,-0.014435,-0.00923311,0.0,0 STARLINK-5560,1 55749U 23028J   23090.91667824 -.00923311  00000-0 -14435-1 0  9991,2 55749  70.0006  76.2418 0003231 264.6033 282.1669 15.56244282  5082,6776.675,92.53,400.73,396.351,0.0
55749.0,STARLINK-5560,PAYLOAD,2023-04-01 14:00:01,15.54940046,0.0003248,70.0003,74.4069,271.3639,47.6614,-0.015563,-0.00946166,0.0,0 STARLINK-5560,1 55749U 23028J   23091.58334491 -.00946166  00000-0 -15563-1 0  9992,2 55749  70.0003  74.4069 0003248 271.3639  47.6614 15.54940046  1300,6780.464,92.608,404.531,400.127,0.0
55749.0,STARLINK-5560,PAYLOAD,2023-04-01 22:00:00,15.54290079,0.0003418,70.0006,73.4912,268.1242,115.8437,-0.01554,-0.00924662,0.0,0 STARLINK-5560,1 55749U 23028J   23091.91667824 -.00924662  00000-0 -15540-1 0  9990,2 55749  70.0006  73.4912 0003418 268.1242 115.8437 15.54290079  5244,6782.354,92.647,406.537,401.901,0.0
55749.0,STARLINK-5560,PAYLOAD,2023-04-02 14:00:01,15.52981908,0.0003346,70.0,71.6616,272.7357,238.7964,-0.016655,-0.00956239,0.0,0 STARLINK-5560,1 55749U 23028J   23092.58334491 -.00956239  00000-0 -16655-1 0  9998,2 55749  70.0000  71.6616 0003346 272.7357 238.7964 15.52981908  1306,6786.162,92.725,410.298,405.757,0.0
55749.0,STARLINK-5560,PAYLOAD,2023-04-02 22:00:00,15.52338363,0.0003366,70.0004,70.7484,266.7177,307.4077,-0.016876,-0.00934268,0.0,0 STARLINK-5560,1 55749U 23028J   23092.91667824 -.00934268  00000-0 -16876-1 0  9997,2 55749  70.0004  70.7484 0003366 266.7177 307.4077 15.52338363  1308,6788.038,92.763,412.188,407.618,0.0
55749.0,STARLINK-5560,PAYLOAD,2023-04-03 06:00:00,15.51485153,0.0003499,70.0005,69.836,276.556,359.4369,-0.0066972,-0.00378873,0.0,0 STARLINK-5560,1 55749U 23028J   23093.25001157 -.00378873  00000-0 -66972-2 0  9993,2 55749  70.0005  69.8360 0003499 276.5560 359.4369 15.51485153  5442,6790.526,92.814,414.767,410.015,0.0
55749.0,STARLINK-5560,PAYLOAD,2023-04-03 14:00:01,15.51234311,0.0003552,70.0001,68.9242,273.5442,63.5021,-0.00062109,-0.00036494,0.0,0 STARLINK-5560,1 55749U 23028J   23093.58334491 -.00036494  00000-0 -62109-3 0  9998,2 55749  70.0001  68.9242 0003552 273.5442  63.5021 15.51234311  5506,6791.258,92.829,415.535,410.711,0.0
